73P-H/Schwassmann-Wachmann,e,11.389,69.903,198.778,3.06223,0.183927,0.6933024,359.948,06/08.0/2006,2000,g  9.0,4.0
# From MPC 56796
73P-J/Schwassmann-Wachmann,e,11.386,69.983,198.673,3.06380,0.183786,0.6933024,359.974,06/08.0/2006,2000,g  9.0,4.0
# From MPC 56797
73P-K/Schwassmann-Wachmann,e,11.390,69.881,198.809,3.06176,0.183970,0.6933024,359.959,06/08.0/2006,2000,g  9.0,4.0
# From MPC 56797
73P-L/Schwassmann-Wachmann,e,11.388,69.911,198.772,3.06211,0.183938,0.6933024,359.937,06/08.0/2006,2000,g  9.0,4.0
# From MPC 56797
73P-M/Schwassmann-Wachmann,e,11.389,69.895,198.787,3.06205,0.183944,0.6933024,359.952,06/08.0/2006,2000,g  9.0,4.0
# From MPC 56797
73P-N/Schwassmann-Wachmann,e,11.389,69.909,198.754,3.06231,0.183921,0.6933024,359.952,06/08.0/2006,2000,g  9.0,4.0
# From MPC 56797
73P-P/Schwassmann-Wachmann,e,11.390,69.900,198.783,3.06222,0.183929,0.6933024,359.839,06/07.0/2006,2000,g  9.0,4.0
# From MPC 56797
73P-Q/Schwassmann-Wachmann,e,11.387,69.944,198.717,3.06298,0.183860,0.6933024,359.867,06/07.0/2006,2000,g  9.0,4.0
# From MPC 56797
73P-R/Schwassmann-Wachmann,e,11.388,69.904,198.776,3.06224,0.183927,0.6933024,359.966,06/08.0/2006,2000,g  9.0,4.0
# From MPC 56797
73P-S/Schwassmann-Wachmann,e,11.127,77.364,188.229,3.22719,0.170007,0.6933024,359.883,06/08.0/2006,2000,g  9.0,4.0
# From MPEC 2023-J29
73P-T/Schwassmann-Wachmann,e,11.2997,69.5222,199.3343,3.086578,0.1817557,0.68853764,105.7903,03/30.0/2024,2000,g  9.0,4.0
# From MPC 56797
73P-U/Schwassmann-Wachmann,e,11.384,69.994,198.659,3.06366,0.183799,0.6933024,359.997,06/09.0/2006,2000,g  9.0,4.0
# From MPC 56797
73P-V/Schwassmann-Wachmann,e,11.651,65.236,204.943,2.97417,0.192156,0.6933024,359.908,06/08.0/2006,2000,g  9.0,4.0
# From MPC 56797
73P-W/Schwassmann-Wachmann,e,11.390,69.884,198.803,3.06185,0.183962,0.6933024,359.908,06/08.0/2006,2000,g  9.0,4.0
# From MPC 56798
73P-X/Schwassmann-Wachmann,e,11.388,69.900,198.778,3.06207,0.183942,0.6933024,359.896,06/08.0/2006,2000,g  9.0,4.0
# From MPC 56798
73P-Y/Schwassmann-Wachmann,e,11.391,69.879,198.785,3.06200,0.183948,0.6933024,359.858,06/08.0/2006,2000,g  9.0,4.0
# From MPC 56798
73P-Z/Schwassmann-Wachmann,e,11.349,70.493,198.017,3.07155,0.183091,0.6933024,359.943,06/08.0/2006,2000,g  9.0,4.0
# From MPC 56798
73P-AA/Schwassmann-Wachmann,e,11.390,69.883,198.804,3.06182,0.183965,0.6933024,359.984,06/09.0/2006,2000,g  9.0,4.0
# From MPC 56798
73P-AB/Schwassmann-Wachmann,e,11.390,69.888,198.792,3.06183,0.183964,0.6933024,359.872,06/08.0/2006,2000,g  9.0,4.0
# From MPC 56798
73P-AC/Schwassmann-Wachmann,e,11.387,69.914,198.766,3.06223,0.183927,0.6933024,359.872,06/08.0/2006,2000,g  9.0,4.0
# From MPC 56798
73P-AD/Schwassmann-Wachmann,e,11.355,70.416,198.119,3.07035,0.183198,0.6933024,359.873,06/08.0/2006,2000,g  9.0,4.0
# From MPC 56798
73P-AE/Schwassmann-Wachmann,e,11.390,69.891,198.790,3.06196,0.183952,0.6933024,359.935,06/08.0/2006,2000,g  9.0,4.0
# From MPC 56798
73P-AF/Schwassmann-Wachmann,e,11.356,70.302,198.217,3.06961,0.183265,0.6933024,359.846,06/06.0/2006,2000,g  9.0,4.0
# From MPC 56798
73P-AG/Schwassmann-Wachmann,e,11.386,69.932,198.724,3.06233,0.183919,0.6933024,359.997,06/09.0/2006,2000,g  9.0,4.0
# From MPC 56798
73P-AH/Schwassmann-Wachmann,e,11.331,70.695,197.755,3.07445,0.182832,0.6933024,359.885,06/08.0/2006,2000,g  9.0,4.0
# From MPC 56798
73P-AI/Schwassmann-Wachmann,e,11.392,69.885,198.806,3.06205,0.183944,0.6933024,359.864,06/08.0/2006,2000,g  9.0,4.0
# From MPC 56799
73P-AJ/Schwassmann-Wachmann,e,11.385,70.041,198.663,3.06262,0.183892,0.6933024,359.864,06/08.0/2006,2000,g  9.0,4.0
# From MPC 56799
73P-AK/Schwassmann-Wachmann,e,11.389,69.784,198.822,3.06244,0.183909,0.6933024,359.927,06/08.0/2006,2000,g  9.0,4.0
# From MPC 56799
73P-AL/Schwassmann-Wachmann,e,11.395,69.843,198.857,3.06140,0.184003,0.6933024,359.916,06/08.0/2006,2000,g  9.0,4.0
# From MPC 56799
73P-AM/Schwassmann-Wachmann,e,11.394,69.876,198.815,3.06205,0.183944,0.6933024,359.951,06/08.0/2006,2000,g  9.0,4.0
# From MPC 56799
73P-AN/Schwassmann-Wachmann,e,11.393,69.870,198.820,3.06185,0.183962,0.6933024,359.940,06/08.0/2006,2000,g  9.0,4.0
# From MPC 56799
73P-AO/Schwassmann-Wachmann,e,11.210,71.286,197.007,3.07823,0.182496,0.6933024,359.853,06/07.0/2006,2000,g  9.0,4.0
# From MPC 56799
73P-AP/Schwassmann-Wachmann,e,11.393,69.895,198.794,3.06223,0.183928,0.6933024,359.874,06/06.0/2006,2000,g  9.0,4.0
# From MPC 56799
73P-AQ/Schwassmann-Wachmann,e,11.387,69.911,198.770,3.06230,0.183921,0.6933024,359.831,06/07.0/2006,2000,g  9.0,4.0
# From MPC 56799
73P-AR/Schwassmann-Wachmann,e,11.385,69.946,198.722,3.06285,0.183872,0.6933024,359.847,06/06.0/2006,2000,g  9.0,4.0
# From MPC 56799
73P-AS/Schwassmann-Wachmann,e,11.392,69.906,198.773,3.06237,0.183915,0.6933024,359.938,06/06.0/2006,2000,g  9.0,4.0
# From MPC 56799
73P-AT/Schwassmann-Wachmann,e,11.391,69.901,198.778,3.06248,0.183905,0.6933024,359.958,06/06.0/2006,2000,g  9.0,4.0
# From MPC 56799
73P-AU/Schwassmann-Wachmann,e,11.385,69.928,198.744,3.06261,0.183894,0.6933024,359.983,06/08.0/2006,2000,g  9.0,4.0
# From MPC 56800
73P-AV/Schwassmann-Wachmann,e,11.388,69.945,198.751,3.06263,0.183892,0.6933024,359.910,06/06.0/2006,2000,g  9.0,4.0
# From MPC 56800
73P-AW/Schwassmann-Wachmann,e,11.377,69.982,198.673,3.06318,0.183843,0.6933024,359.859,06/07.0/2006,2000,g  9.0,4.0
# From MPC 56800
73P-AX/Schwassmann-Wachmann,e,11.388,69.915,198.757,3.06205,0.183944,0.6933024,359.902,06/09.0/2006,2000,g  9.0,4.0
# From MPC 56800
73P-AY/Schwassmann-Wachmann,e,11.385,69.923,198.750,3.06223,0.183927,0.6933024,359.860,06/08.0/2006,2000,g  9.0,4.0
# From MPC 56800
73P-AZ/Schwassmann-Wachmann,e,11.371,70.002,198.644,3.06367,0.183798,0.6933024,359.905,06/06.0/2006,2000,g  9.0,4.0
# From MPC 56800
73P-BA/Schwassmann-Wachmann,e,11.364,70.042,198.588,3.06413,0.183756,0.6933024,359.920,06/06.0/2006,2000,g  9.0,4.0
# From MPC 56800
73P-BB/Schwassmann-Wachmann,e,11.395,69.882,198.807,3.06205,0.183944,0.6933024,359.984,06/07.0/2006,2000,g  9.0,4.0
# From MPC 56800
73P-BC/Schwassmann-Wachmann,e,11.391,69.901,198.778,3.06235,0.183917,0.6933024,359.877,06/06.0/2006,2000,g  9.0,4.0
# From MPC 56800
73P-BD/Schwassmann-Wachmann,e,11.352,70.085,198.503,3.06483,0.183694,0.6933024,359.923,06/06.0/2006,2000,g  9.0,4.0
# From MPC 56800
73P-BE/Schwassmann-Wachmann,e,11.405,69.841,198.861,3.06171,0.183975,0.6933024,359.841,06/06.0/2006,2000,g  9.0,4.0
# From MPC 56800
73P-BF/Schwassmann-Wachmann,e,11.390,69.908,198.752,3.06223,0.183928,0.6933024,359.818,06/06.0/2006,2000,g  9.0,4.0
# From MPC 56800
73P-BG/Schwassmann-Wachmann,e,11.384,69.925,198.750,3.06214,0.183936,0.6933024,359.864,06/08.0/2006,2000,g  9.0,4.0
# From MPC 56801
73P-BH/Schwassmann-Wachmann,e,11.410,69.752,198.947,3.06079,0.184058,0.6933024,359.895,06/08.0/2006,2000,g  9.0,4.0
# From MPC 56801
73P-BI/Schwassmann-Wachmann,e,11.404,69.819,198.877,3.06179,0.183967,0.6933024,359.882,06/08.0/2006,2000,g  9.0,4.0
# From MPC 56801
73P-BJ/Schwassmann-Wachmann,e,11.389,69.905,198.776,3.06209,0.183941,0.6933024,359.877,06/08.0/2006,2000,g  9.0,4.0
# From MPC 56801
73P-BK/Schwassmann-Wachmann,e,11.379,69.970,198.698,3.06264,0.183891,0.6933024,359.837,06/08.0/2006,2000,g  9.0,4.0
# From MPC 56801
73P-BL/Schwassmann-Wachmann,e,11.385,69.930,198.739,3.06239,0.183914,0.6933024,359.837,06/08.0/2006,2000,g  9.0,4.0
# From MPC 56801
73P-BM/Schwassmann-Wachmann,e,11.364,70.086,198.546,3.06367,0.183798,0.6933024,359.827,06/08.0/2006,2000,g  9.0,4.0
# From MPC 56801
73P-BN/Schwassmann-Wachmann,e,11.398,69.871,198.815,3.06180,0.183967,0.6933024,359.963,06/08.0/2006,2000,g  9.0,4.0
# From MPC 56801
73P-BO/Schwassmann-Wachmann,e,11.390,69.903,198.765,3.06206,0.183943,0.6933024,359.952,06/08.0/2006,2000,g  9.0,4.0
# From MPC 56801
73P-BP/Schwassmann-Wachmann,e,11.395,69.881,198.807,3.06196,0.183952,0.6933024,359.944,06/08.0/2006,2000,g  9.0,4.0
# From MPC 56801
73P-BQ/Schwassmann-Wachmann,e,11.404,69.836,198.862,3.06166,0.183979,0.6933024,359.945,06/08.0/2006,2000,g  9.0,4.0
# From MPC 56957
73P-BR/Schwassmann-Wachmann,e,11.389,69.910,198.774,3.06233,0.183918,0.6933024,359.971,06/06.0/2006,2000,g  9.0,4.0
# From MPC 56957
73P-BS/Schwassmann-Wachmann,e,11.399,69.885,198.814,3.06224,0.183927,0.6933024,359.847,06/05.0/2006,2000,g  9.0,4.0
# From MPC106348
73P-BT/Schwassmann-Wachmann,e,11.1921,199.2763,69.5799,3.089712,0.1814793,0.68873913,105.1669,03/30.0/2024,2000,g 11.5,6.0
# From MPEC 2022-P18
73P-BU/Schwassmann-Wachmann,e,11.0523,199.7692,70.6131,2.872811,0.2024154,0.66850006,117.8501,03/30.0/2024,2000,g 19.0,4.0
# From MPEC 2022-X67
73P-BV/Schwassmann-Wachmann,e,11.3198,69.3848,199.2220,3.140817,0.1770680,0.69376445,102.9711,03/30.0/2024,2000,g 19.0,4.0
# From MPEC 2022-R15
73P-BW/Schwassmann-Wachmann,e,10.6263,195.3173,69.5698,4.557370,0.1013054,0.78995096,58.6907,03/30.0/2024,2000,g 18.2,4.0
# From MPEC 2023-A50
73P-BX/Schwassmann-Wachmann,e,11.3332,69.3812,199.2442,3.120265,0.1788203,0.69165270,103.9357,03/30.0/2024,2000,g 17.5,4.0
# From MPEC 2022-R15
73P-BY/Schwassmann-Wachmann,e,11.1666,199.2949,69.7245,3.030248,0.1868473,0.68296164,108.8414,03/30.0/2024,2000,g 17.4,4.0
# From MPEC 2024-EF7
74P/Smirnova-Chernykh,e,6.4821,53.6913,122.9426,4.846173,0.0923859,0.03990962,230.3223,03/30.0/2024,2000,g  5.0,6.0
# From CCO 7
75D/Kohoutek,e,5.9252,269.5536,175.5500,3.537447,0.1481389,0.49930249,165.6096,03/30.0/2024,2000,g  9.5,6.0
# From MPEC 2022-K19
76P/West-Kohoutek-Ikemura,e,30.4868,84.1102,359.9530,3.469108,0.1525378,0.53926859,246.4259,03/30.0/2024,2000,g  8.0,12.0
# From MPEC 2023-TM6
77P/Longmore,e,24.3185,14.7627,196.6851,3.622252,0.1429671,0.35168025,51.7599,03/30.0/2024,2000,g  7.0,8.0
# From MPEC 2021-O56
78P/Gehrels,e,6.2569,210.5311,192.6866,3.735535,0.1365133,0.46317734,248.4757,03/30.0/2024,2000,g  5.5,8.0
# From MPC 94675
79P/du Toit-Hartley,e,3.1488,281.7714,280.5261,2.943813,0.1951366,0.61920626,35.4464,03/30.0/2024,2000,g 16.0,4.0
# From MPEC 2023-RF3
